NORAD_CAT_ID,OBJECT_NAME,OBJECT_TYPE,EPOCH,MEAN_MOTION,ECCENTRICITY,INCLINATION,RA_OF_ASC_NODE,ARG_OF_PERICENTER,MEAN_ANOMALY,BSTAR,MEAN_MOTION_DOT,MEAN_MOTION_DDOT,TLE_LINE0,TLE_LINE1,TLE_LINE2,SEMIMAJOR_AXIS,PERIOD,APOGEE,PERIGEE,DECAYED
53738.0,STARLINK-4662,PAYLOAD,2022-12-25 16:07:09,15.08834446,0.0001597,53.2186,116.2965,54.7578,305.3564,-0.00019834,-3.443e-05,0.0,0 STARLINK-4662,1 53738U 22107AQ  22359.67164329 -.00003443  00000-0 -19834-3 0  9991,2 53738  53.2186 116.2965 0001597  54.7578 305.3564 15.08834446 17187,6917.897,95.438,540.867,538.658,0.0
53738.0,STARLINK-4662,PAYLOAD,2022-12-26 17:33:20,15.08840917,0.0001599,53.2187,111.5391,54.1382,305.9758,0.00012841,1.756e-05,0.0,0 STARLINK-4662,1 53738U 22107AQ  22360.73148469  .00001756  00000-0  12841-3 0  9991,2 53738  53.2187 111.5391 0001599  54.1382 305.9758 15.08840917 17347,6917.878000000002,95.437,540.849,538.636,0.0
53738.0,STARLINK-4662,PAYLOAD,2022-12-27 14:13:20,15.08858655,0.0001696999999999,53.2188,107.6744,59.1274,300.9885,0.00045939,7.034e-05,0.0,0 STARLINK-4662,1 53738U 22107AQ  22361.59259499  .00007034  00000-0  45939-3 0  9991,2 53738  53.2188 107.6744 0001697  59.1274 300.9885 15.08858655 17478,6917.823,95.436,540.862,538.514,0.0
53738.0,STARLINK-4662,PAYLOAD,2022-12-28 06:07:10,15.08862125,0.0001728,53.2187,104.7008,55.1417,304.9737,0.0002569999999999,3.807e-05,0.0,0 STARLINK-4662,1 53738U 22107AQ  22362.25498722  .00003807  00000-0  25700-3 0  9997,2 53738  53.2187 104.7008 0001728  55.1417 304.9737 15.08862125 18207,6917.813,95.436,540.873,538.482,0.0
53738.0,STARLINK-4662,PAYLOAD,2022-12-28 15:39:30,15.0883775,0.0001518,53.2186,102.9167,52.292,307.821,-0.00029205,-4.933e-05,0.0,0 STARLINK-4662,1 53738U 22107AQ  22362.65243142 -.00004933  00000-0 -29205-3 0  9992,2 53738  53.2186 102.9167 0001518  52.2920 307.8210 15.08837750 17636,6917.887,95.438,540.802,538.702,0.0
53738.0,STARLINK-4662,PAYLOAD,2022-12-29 07:33:22,15.0881725,0.0001693,53.2184,99.9426,54.9722,305.1428,7.0627e-05,8.36e-06,0.0,0 STARLINK-4662,1 53738U 22107AQ  22363.31484216  .00000836  00000-0  70627-4 0  9996,2 53738  53.2184  99.9426 0001693  54.9722 305.1428 15.08817250 17736,6917.95,95.439,540.986,538.644,0.0
53738.0,STARLINK-4662,PAYLOAD,2022-12-29 15:30:18,15.08812681,0.0001664,53.2188,98.4565,43.12600000000001,316.9862,-0.00043079,-7.132e-05,0.0,0 STARLINK-4662,1 53738U 22107AQ  22363.64605102 -.00007132  00000-0 -43079-3 0  9999,2 53738  53.2188  98.4565 0001664  43.1260 316.9862 15.08812681 17783,6917.964,95.439,540.98,538.678,0.0
53738.0,STARLINK-4662,PAYLOAD,2022-12-30 12:10:19,15.08837834,0.0001710999999999,53.2184,94.5917,47.0007,313.1128,0.00034125,5.147e-05,0.0,0 STARLINK-4662,1 53738U 22107AQ  22364.50717167  .00005147  00000-0  34125-3 0  9994,2 53738  53.2184  94.5917 0001711  47.0007 313.1128 15.08837834 17918,6917.887,95.438,540.936,538.568,0.0
53738.0,STARLINK-4662,PAYLOAD,2022-12-30 15:21:05,15.08854787,0.0001453,53.2187,93.9961,48.5352,311.5765,0.00058815,9.089e-05,0.0,0 STARLINK-4662,1 53738U 22107AQ  22364.63964496  .00009089  00000-0  58815-3 0  9998,2 53738  53.2187  93.9961 0001453  48.5352 311.5765 15.08854787 17932,6917.835,95.437,540.705,538.695,0.0
53738.0,STARLINK-4662,PAYLOAD,2022-12-31 12:01:05,15.08848431,0.0001719,53.2185,90.1311,48.6785,311.4355,-0.00014367,-2.574e-05,0.0,0 STARLINK-4662,1 53738U 22107AQ  22365.50076219 -.00002574  00000-0 -14367-3 0  9990,2 53738  53.2185  90.1311 0001719  48.6785 311.4355 15.08848431 18062,6917.855,95.437,540.909,538.53,0.0
53738.0,STARLINK-4662,PAYLOAD,2022-12-31 15:11:51,15.0885279,0.0001745,53.2185,89.5363,42.5385,317.5742,-9.5242e-05,-1.804e-05,0.0,0 STARLINK-4662,1 53738U 22107AQ  22365.63324033 -.00001804  00000-0 -95242-4 0  9991,2 53738  53.2185  89.5363 0001745  42.5385 317.5742 15.08852790 18711,6917.840999999999,95.437,540.913,538.499,0.0
53738.0,STARLINK-4662,PAYLOAD,2023-01-01 05:30:19,15.08861522,0.0001824,53.2185,86.8598,44.9381,315.1759,0.00054115,8.340000000000001e-05,0.0,0 STARLINK-4662,1 53738U 22107AQ  23001.22939241  .00008340  00000-0  54115-3 0  9990,2 53738  53.2185  86.8598 0001824  44.9381 315.1759 15.08861522 18176,6917.815,95.436,540.941,538.418,0.0
53738.0,STARLINK-4662,PAYLOAD,2023-01-01 11:51:51,15.08862822,0.0001869,53.2186,85.669,48.014,312.1011,0.00084238,0.00013152,0.0,0 STARLINK-4662,1 53738U 22107AQ  23001.49435125  .00013152  00000-0  84238-3 0  9997,2 53738  53.2186  85.6690 0001869  48.0140 312.1011 15.08862822 18840,6917.811,95.436,540.969,538.383,0.0
53738.0,STARLINK-4662,PAYLOAD,2023-01-01 15:02:38,15.08851975,0.0001844,53.2185,85.0755,42.4173,317.6962,0.00072717,0.00011308,0.0,0 STARLINK-4662,1 53738U 22107AQ  23001.62683279  .00011308  00000-0  72717-3 0  9997,2 53738  53.2185  85.0755 0001844  42.4173 317.6962 15.08851975 18866,6917.844,95.437,540.984,538.433,0.0
53738.0,STARLINK-4662,PAYLOAD,2023-01-01 22:59:33,15.08851194,0.0001718,53.2189,83.5885,40.3582,319.7537,0.00047225,7.238e-05,0.0,0 STARLINK-4662,1 53738U 22107AQ  23001.95803186  .00007238  00000-0  47225-3 0  9997,2 53738  53.2189  83.5885 0001718  40.3582 319.7537 15.08851194 18288,6917.846,95.437,540.9,538.523,0.0
53738.0,STARLINK-4662,PAYLOAD,2023-01-02 05:21:06,15.08842532,0.000169,53.2195,82.3993,39.5073,320.6042,0.00023455,3.447e-05,0.0,0 STARLINK-4662,1 53738U 22107AQ  23002.22299368  .00003447  00000-0  23455-3 0  9996,2 53738  53.2195  82.3993 0001690  39.5073 320.6042 15.08842532 18329,6917.873000000001,95.437,540.9069999999998,538.569,0.0
53738.0,STARLINK-4662,PAYLOAD,2023-01-02 11:42:39,15.08834264,0.0001571,53.2212,81.21,27.5866,332.5209,0.00018891,2.719e-05,0.0,0 STARLINK-4662,1 53738U 22107AQ  23002.48795664  .00002719  00000-0  18891-3 0  9993,2 53738  53.2212  81.2100 0001571  27.5866 332.5209 15.08834264 18366,6917.898,95.438,540.85,538.6759999999998,0.0
53738.0,STARLINK-4662,PAYLOAD,2023-01-02 14:53:25,15.08831812,0.0001754999999999,53.2204,80.6161,32.3252,327.7848,0.00018633,2.678e-05,0.0,0 STARLINK-4662,1 53738U 22107AQ  23002.62043852  .00002678  00000-0  18633-3 0  9992,2 53738  53.2204  80.6161 0001755  32.3252 327.7848 15.08831812 19018,6917.905,95.438,540.985,538.556,0.0
53738.0,STARLINK-4662,PAYLOAD,2023-01-03 05:11:54,15.08825864,0.0001853,53.2193,77.9397,38.0211,322.0912,0.00036709,5.557e-05,0.0,0 STARLINK-4662,1 53738U 22107AQ  23003.21660766  .00005557  00000-0  36709-3 0  9990,2 53738  53.2193  77.9397 0001853  38.0211 322.0912 15.08825864 18471,6917.924,95.438,541.07,538.507,0.0
53738.0,STARLINK-4662,PAYLOAD,2023-01-03 11:33:27,15.08826719,0.000182,53.2195,76.7501,40.0894,320.0232,0.0002612,3.87e-05,0.0,0 STARLINK-4662,1 53738U 22107AQ  23003.48157025  .00003870  00000-0  26120-3 0  9990,2 53738  53.2195  76.7501 0001820  40.0894 320.0232 15.08826719 19149,6917.920999999999,95.438,541.045,538.5269999999998,0.0
53738.0,STARLINK-4662,PAYLOAD,2023-01-04 11:24:14,15.08842395,0.0001879,53.2198,72.2902,41.5708,318.5427,0.00041098,6.259e-05,0.0,0 STARLINK-4662,1 53738U 22107AQ  23004.47517184  .00006259  00000-0  41098-3 0  9991,2 53738  53.2198  72.2902 0001879  41.5708 318.5427 15.08842395 18664,6917.873000000001,95.437,541.038,538.438,0.0
53738.0,STARLINK-4662,PAYLOAD,2023-01-04 20:56:33,15.08861766,0.0001902,53.2201,70.5067,43.2082,316.9059,0.0007062,0.00010976,0.0,0 STARLINK-4662,1 53738U 22107AQ  23004.87260460  .00010976  00000-0  70620-3 0  9991,2 53738  53.2201  70.5067 0001902  43.2082 316.9059 15.08861766 18726,6917.814,95.436,540.995,538.363,0.0
53738.0,STARLINK-4662,PAYLOAD,2023-01-05 12:50:23,15.08864482,0.0001863,53.2201,67.5338,44.9558,315.1585,0.00040614,6.186e-05,0.0,0 STARLINK-4662,1 53738U 22107AQ  23005.53499550  .00006186  00000-0  40614-3 0  9997,2 53738  53.2201  67.5338 0001863  44.9558 315.1585 15.08864482 18829,6917.806,95.436,540.9590000000002,538.382,0.0
53738.0,STARLINK-4662,PAYLOAD,2023-01-06 12:41:11,15.08827096,0.0001366,53.2189,63.0718,19.6858,340.4187,-0.00040343,-6.7e-05,0.0,0 STARLINK-4662,1 53738U 22107AQ  23006.52860293 -.00006700  00000-0 -40343-3 0  9996,2 53738  53.2189  63.0718 0001366  19.6858 340.4187 15.08827096 18972,6917.92,95.438,540.73,538.84,0.0
53738.0,STARLINK-4662,PAYLOAD,2023-01-06 23:48:53,15.08826042,0.0001825,53.2203,60.9908,26.8156,333.293,-0.0001806,-3.16e-05,0.0,0 STARLINK-4662,1 53738U 22107AQ  23006.99229034 -.00003160  00000-0 -18060-3 0  9997,2 53738  53.2203  60.9908 0001825  26.8156 333.2930 15.08826042 19671,6917.923000000002,95.438,541.0509999999998,538.526,0.0
53738.0,STARLINK-4662,PAYLOAD,2023-01-07 06:10:26,15.08839466,0.0001817,53.2193,59.8015,37.4496,322.6622,0.00014905,2.085e-05,0.0,0 STARLINK-4662,1 53738U 22107AQ  23007.25724749  .00002085  00000-0  14905-3 0  9997,2 53738  53.2193  59.8015 0001817  37.4496 322.6622 15.08839466 19080,6917.882,95.438,541.004,538.49,0.0
53738.0,STARLINK-4662,PAYLOAD,2023-01-07 20:28:55,15.08815403,0.0002748,53.2173,57.1246,66.4285,293.6996,3.2841999999999995e-05,2.34e-06,0.0,0 STARLINK-4662,1 53738U 22107AQ  23007.85342352  .00000234  00000-0  32842-4 0  9994,2 53738  53.2173  57.1246 0002748  66.4285 293.6996 15.08815403 19803,6917.956,95.439,541.722,537.92,0.0
53738.0,STARLINK-4662,PAYLOAD,2023-01-08 02:50:28,15.08827278,0.000192,53.2187,55.9362,41.9877,318.1262,0.00023892,3.515e-05,0.0,0 STARLINK-4662,1 53738U 22107AQ  23008.11838215  .00003515  00000-0  23892-3 0  9991,2 53738  53.2187  55.9362 0001920  41.9877 318.1262 15.08827278 19216,6917.919,95.438,541.113,538.456,0.0
53738.0,STARLINK-4662,PAYLOAD,2023-01-08 09:12:00,15.08835207,0.0001827,53.2175,54.7463,50.2716,309.8437,0.00041903,6.386e-05,0.0,0 STARLINK-4662,1 53738U 22107AQ  23008.38334066  .00006386  00000-0  41903-3 0  9997,2 53738  53.2175  54.7463 0001827  50.2716 309.8437 15.08835207 19888,6917.895,95.438,541.024,538.496,0.0
